YMML 121630Z 35009KT CAVOK 10/06 Q1030 NOSIG
