CYUL 121600Z 33005KT 30SM FEW045 BKN080 10/M01 A3009 RMK CU2AC2 SLP191
