KBOS 121617Z 33011KT 6SM -RA SCT035 BKN050 BKN080 09/03 A2996 RMK AO2 WSHFT 1557 P0000
