CYUL 121700Z 36002KT 30SM SCT045 BKN085 10/M01 A3008 RMK CU4AC1 SLP187
